{
  "type": "FeatureCollection",
  "features": [
    {
      "type": "Feature",
      "properties": {
        "norad_id": 36173,
        "name": "FENGYUN 1C DEB",
        "group": "fengyun-1c-debris",
        "lat": 8.109709366242829,
        "lon": -46.62055610287612,
        "alt_km": 894.0384637261932,
        "timestamp": "2025-12-24T03:53:29.935353+00:00",
        "meta_object_name": "FENGYUN 1C DEB",
        "meta_object_id": "1999-025DSW",
        "meta_epoch": "2025-12-22T02:59:15.796896",
        "meta_mean_motion": 14.25182833,
        "meta_eccentricity": 0.01475243,
        "meta_inclination": 98.2146,
        "meta_ra_of_asc_node": 312.65,
        "meta_arg_of_pericenter": 157.5208,
        "meta_mean_anomaly": 203.2527,
        "meta_ephemeris_type": 0,
        "meta_classification_type": "U",
        "meta_norad_cat_id": 36173,
        "meta_element_set_no": 999,
        "meta_rev_at_epoch": 59224,
        "meta_bstar": 0.00017937593,
        "meta_mean_motion_dot": 4.32e-06,
        "meta_mean_motion_ddot": 0,
        "tle_line1": "1 36173U 99025DSW 25356.12448839  .00000432  00000+0  17938-3 0  9994",
        "tle_line2": "2 36173  98.2146 312.6500 0147524 157.5208 203.2527 14.25182833592240"
      },
      "geometry": {
        "type": "Point",
        "coordinates": [
          -46.62055610287612,
          8.109709366242829
        ]
      }
    },
    {
      "type": "Feature",
      "properties": {
        "norad_id": 36180,
        "name": "FENGYUN 1C DEB",
        "group": "fengyun-1c-debris",
        "lat": 14.585551950268972,
        "lon": -116.4840273814737,
        "alt_km": 971.3924225197024,
        "timestamp": "2025-12-24T03:53:29.935364+00:00",
        "meta_object_name": "FENGYUN 1C DEB",
        "meta_object_id": "1999-025DTD",
        "meta_epoch": "2025-12-05T21:21:22.276224",
        "meta_mean_motion": 14.20680074,
        "meta_eccentricity": 0.02106275,
        "meta_inclination": 98.4572,
        "meta_ra_of_asc_node": 43.7979,
        "meta_arg_of_pericenter": 50.8055,
        "meta_mean_anomaly": 311.1621,
        "meta_ephemeris_type": 0,
        "meta_classification_type": "U",
        "meta_norad_cat_id": 36180,
        "meta_element_set_no": 999,
        "meta_rev_at_epoch": 70486,
        "meta_bstar": 0.00091841135,
        "meta_mean_motion_dot": 2.432e-05,
        "meta_mean_motion_ddot": 0,
        "tle_line1": "1 36180U 99025DTD 25339.88984116  .00002432  00000+0  91841-3 0  9996",
        "tle_line2": "2 36180  98.4572  43.7979 0210627  50.8055 311.1621 14.20680074704867"
      },
      "geometry": {
        "type": "Point",
        "coordinates": [
          -116.4840273814737,
          14.585551950268972
        ]
      }
    },
    {
      "type": "Feature",
      "properties": {
        "norad_id": 36182,
        "name": "FENGYUN 1C DEB",
        "group": "fengyun-1c-debris",
        "lat": -75.80687469594648,
        "lon": 67.03727016755428,
        "alt_km": 796.1684011263751,
        "timestamp": "2025-12-24T03:53:29.935374+00:00",
        "meta_object_name": "FENGYUN 1C DEB",
        "meta_object_id": "1999-025DTF",
        "meta_epoch": "2025-12-23T13:17:56.298048",
        "meta_mean_motion": 14.34804109,
        "meta_eccentricity": 0.002243,
        "meta_inclination": 99.0895,
        "meta_ra_of_asc_node": 285.6686,
        "meta_arg_of_pericenter": 46.0799,
        "meta_mean_anomaly": 314.2231,
        "meta_ephemeris_type": 0,
        "meta_classification_type": "U",
        "meta_norad_cat_id": 36182,
        "meta_element_set_no": 999,
        "meta_rev_at_epoch": 88112,
        "meta_bstar": 0.0015002,
        "meta_mean_motion_dot": 4.222e-05,
        "meta_mean_motion_ddot": 0,
        "tle_line1": "1 36182U 99025DTF 25357.55412382  .00004222  00000+0  15002-2 0  9996",
        "tle_line2": "2 36182  99.0895 285.6686 0022430  46.0799 314.2231 14.34804109881129"
      },
      "geometry": {
        "type": "Point",
        "coordinates": [
          67.03727016755428,
          -75.80687469594648
        ]
      }
    },
    {
      "type": "Feature",
      "properties": {
        "norad_id": 36186,
        "name": "FENGYUN 1C DEB",
        "group": "fengyun-1c-debris",
        "lat": 65.02464309806535,
        "lon": 63.37445542937899,
        "alt_km": 522.6153634522498,
        "timestamp": "2025-12-24T03:53:29.935387+00:00",
        "meta_object_name": "FENGYUN 1C DEB",
        "meta_object_id": "1999-025DTK",
        "meta_epoch": "2025-12-15T21:11:23.031744",
        "meta_mean_motion": 15.12863238,
        "meta_eccentricity": 0.00117449,
        "meta_inclination": 98.9868,
        "meta_ra_of_asc_node": 213.7545,
        "meta_arg_of_pericenter": 332.6772,
        "meta_mean_anomaly": 45.2682,
        "meta_ephemeris_type": 0,
        "meta_classification_type": "U",
        "meta_norad_cat_id": 36186,
        "meta_element_set_no": 999,
        "meta_rev_at_epoch": 61618,
        "meta_bstar": 0.0071053274,
        "meta_mean_motion_dot": 0.00127217,
        "meta_mean_motion_ddot": 0,
        "tle_line1": "1 36186U 99025DTK 25349.88290546  .00127217  00000+0  71053-2 0  9991",
        "tle_line2": "2 36186  98.9868 213.7545 0011744 332.6772  45.2682 15.12863238616186"
      },
      "geometry": {
        "type": "Point",
        "coordinates": [
          63.37445542937899,
          65.02464309806535
        ]
      }
    },
    {
      "type": "Feature",
      "properties": {
        "norad_id": 36188,
        "name": "FENGYUN 1C DEB",
        "group": "fengyun-1c-debris",
        "lat": -45.856507276701635,
        "lon": 107.95901536054212,
        "alt_km": 672.541172353669,
        "timestamp": "2025-12-24T03:53:29.935397+00:00",
        "meta_object_name": "FENGYUN 1C DEB",
        "meta_object_id": "1999-025DTM",
        "meta_epoch": "2025-12-23T18:14:27.373056",
        "meta_mean_motion": 14.60921287,
        "meta_eccentricity": 0.0048133,
        "meta_inclination": 98.5852,
        "meta_ra_of_asc_node": 98.5873,
        "meta_arg_of_pericenter": 270.3481,
        "meta_mean_anomaly": 89.2203,
        "meta_ephemeris_type": 0,
        "meta_classification_type": "U",
        "meta_norad_cat_id": 36188,
        "meta_element_set_no": 999,
        "meta_rev_at_epoch": 88213,
        "meta_bstar": 0.0025681,
        "meta_mean_motion_dot": 0.00012749,
        "meta_mean_motion_ddot": 0,
        "tle_line1": "1 36188U 99025DTM 25357.76003904  .00012749  00000+0  25681-2 0  9998",
        "tle_line2": "2 36188  98.5852  98.5873 0048133 270.3481  89.2203 14.60921287882135"
      },
      "geometry": {
        "type": "Point",
        "coordinates": [
          107.95901536054212,
          -45.856507276701635
        ]
      }
    },
    {
      "type": "Feature",
      "properties": {
        "norad_id": 36198,
        "name": "FENGYUN 1C DEB",
        "group": "fengyun-1c-debris",
        "lat": 22.38396732120496,
        "lon": 23.413914881544546,
        "alt_km": 831.1109513790607,
        "timestamp": "2025-12-24T03:53:29.935408+00:00",
        "meta_object_name": "FENGYUN 1C DEB",
        "meta_object_id": "1999-025DTX",
        "meta_epoch": "2025-12-22T07:26:26.192832",
        "meta_mean_motion": 14.07946934,
        "meta_eccentricity": 0.0096281,
        "meta_inclination": 98.6207,
        "meta_ra_of_asc_node": 25.227,
        "meta_arg_of_pericenter": 88.4857,
        "meta_mean_anomaly": 272.734,
        "meta_ephemeris_type": 0,
        "meta_classification_type": "U",
        "meta_norad_cat_id": 36198,
        "meta_element_set_no": 999,
        "meta_rev_at_epoch": 63722,
        "meta_bstar": 0.0015520227,
        "meta_mean_motion_dot": 2.711e-05,
        "meta_mean_motion_ddot": 0,
        "tle_line1": "1 36198U 99025DTX 25356.31002538  .00002711  00000+0  15520-2 0  9990",
        "tle_line2": "2 36198  98.6207  25.2270 0096281  88.4857 272.7340 14.07946934637227"
      },
      "geometry": {
        "type": "Point",
        "coordinates": [
          23.413914881544546,
          22.38396732120496
        ]
      }
    },
    {
      "type": "Feature",
      "properties": {
        "norad_id": 36199,
        "name": "FENGYUN 1C DEB",
        "group": "fengyun-1c-debris",
        "lat": 45.88119215691687,
        "lon": 10.107240577255041,
        "alt_km": 724.0834562373157,
        "timestamp": "2025-12-24T03:53:29.935418+00:00",
        "meta_object_name": "FENGYUN 1C DEB",
        "meta_object_id": "1999-025DTY",
        "meta_epoch": "2025-12-23T19:16:49.178208",
        "meta_mean_motion": 14.29664994,
        "meta_eccentricity": 0.0092488,
        "meta_inclination": 98.2888,
        "meta_ra_of_asc_node": 18.4119,
        "meta_arg_of_pericenter": 35.0012,
        "meta_mean_anomaly": 325.7203,
        "meta_ephemeris_type": 0,
        "meta_classification_type": "U",
        "meta_norad_cat_id": 36199,
        "meta_element_set_no": 999,
        "meta_rev_at_epoch": 65138,
        "meta_bstar": 0.00024306,
        "meta_mean_motion_dot": 6.12e-06,
        "meta_mean_motion_ddot": 0,
        "tle_line1": "1 36199U 99025DTY 25357.80334697  .00000612  00000+0  24306-3 0  9991",
        "tle_line2": "2 36199  98.2888  18.4119 0092488  35.0012 325.7203 14.29664994651388"
      },
      "geometry": {
        "type": "Point",
        "coordinates": [
          10.107240577255041,
          45.88119215691687
        ]
      }
    }
  ]
}